ONEWEB-0697             
1 61603U 24188K   25028.33336806 -.00793504  00000+0 -23601+0 0  9998
2 61603  86.8126 128.1185 0000066  34.7916 260.3697 14.46350725 16037
ONEWEB-0698             
1 61604U 24188L   25028.50002315 -.00745436  00000+0 -21696+0 0  9996
2 61604  86.8182 128.0750 0003780 217.3251  39.2633 14.47212957 15828
ONEWEB-0699             
1 61605U 24188M   25028.50002315  .00000013  00000+0  00000+0 0  9996
2 61605  87.9113 136.8274 0001258 290.0736 295.0778 13.24861103 15310
ONEWEB-0700             
1 61606U 24188N   25028.50002315  .00000013  00000+0  00000+0 0  9997
2 61606  87.9154 136.8383 0000760 271.6283 173.5166 13.25517036 15377
ONEWEB-0701             
1 61607U 24188P   25028.50002315  .00000013  00000+0  00000+0 0  9998
2 61607  87.9220 136.8294 0002758 254.2132 224.8249 13.24570250 15516
ONEWEB-0702             
1 61608U 24188Q   25028.25002315 -.00711006  00000+0 -20113+0 0  9991
2 61608  86.8169 128.1902 0003872 206.3722 204.8475 14.48457308 15837
ONEWEB-0704             
1 61609U 24188R   25028.00002315  .00064035  00000+0  15077+0 0  9999
2 61609  87.8626 136.9261 0001532  67.1215 319.4897 13.23217492  5451
ONEWEB-0705             
1 61610U 24188S   25028.50002315  .00000013  00000+0  00000+0 0  9992
2 61610  87.9197 136.8350 0001689 311.9512 228.3042 13.24671858 15483
